GLOBALSTAR M088 [+]     
1 37740U 11033B   24025.40222573 -.00000079  00000+0  14085-3 0  9994
2 37740  51.9741  59.4509 0000499 155.5277 307.1551 12.62264252578145
GLOBALSTAR M091 [+]     
1 37741U 11033C   24025.17559059 -.00000092  00000+0  68203-4 0  9998
2 37741  52.0018  22.7872 0000241 155.1102 296.5200 12.62270383578907
GLOBALSTAR M085 [+]     
1 37742U 11033D   24025.08105622 -.00000081  00000+0  12869-3 0  9996
2 37742  51.9893 334.5661 0000245  92.8061 348.7318 12.62266805579402
GLOBALSTAR M081 [+]     
1 37743U 11033E   24025.19197993 -.00000091  00000+0  69756-4 0  9990
2 37743  51.9988 336.7006 0000096  34.6721  71.4991 12.62268667579568
GLOBALSTAR M089 [+]     
1 37744U 11033F   24025.07334692 -.00000055  00000+0  26969-3 0  9995
2 37744  51.9938 291.3857 0000793  44.4262  63.1680 12.62271874580397
